start=new Date('2022-12-03T00:00:00.000Z').valueOf();
sats=[{"SITE":"AFETR","INCLINATION":"53.0559","EPHEMERIS_TYPE":"0","PERIOD":"95.593","RA_OF_ASC_NODE":"318.6829","PERIAPSIS":"546.079","OBJECT_ID":"2021-009N","ARG_OF_PERICENTER":"59.0401","CENTER_NAME":"EARTH","COUNTRY_CODE":"US","FILE":"3679245","TLE_LINE2":"2 47560  53.0559 318.6829 0001679  59.0401 301.0753 15.06390859101210","REV_AT_EPOCH":"10121","MEAN_MOTION_DOT":"0.00001923","MEAN_ELEMENT_THEORY":"SGP4","TLE_LINE1":"1 47560U 21009N   22336.35581638  .00001923  00000-0  14801-3 0  9991","BSTAR":"0.00014801000000","DECAY_DATE":null,"LAUNCH_DATE":"2021-02-04","APOAPSIS":"548.404","GP_ID":"219349721","EPOCH":"2022-12-02T08:32:22.535232","OBJECT_NAME":"STARLINK-1959","MEAN_MOTION_DDOT":"0.0000000000000","NORAD_CAT_ID":"47560","TIME_SYSTEM":"UTC","RCS_SIZE":"LARGE","MEAN_ANOMALY":"301.0753","SEMIMAJOR_AXIS":"6925.377","CLASSIFICATION_TYPE":"U","REF_FRAME":"TEME","ECCENTRICITY":"0.00016790","ELEMENT_SET_NO":"999","MEAN_MOTION":"15.06390859","OBJECT_TYPE":"PAYLOAD"},{"INCLINATION":"53.0555","SITE":"AFETR","EPHEMERIS_TYPE":"0","PERIOD":"95.592","RA_OF_ASC_NODE":"336.9721","OBJECT_ID":"2021-009P","PERIAPSIS":"545.815","ARG_OF_PERICENTER":"71.7914","CENTER_NAME":"EARTH","COUNTRY_CODE":"US","FILE":"3679625","TLE_LINE2":"2 47561  53.0555 336.9721 0002008  71.7914 288.3293 15.06402623100991","MEAN_MOTION_DOT":"0.00002770","REV_AT_EPOCH":"10099","MEAN_ELEMENT_THEORY":"SGP4","TLE_LINE1":"1 47561U 21009P   22336.74193974  .00002770  00000-0  20476-3 0  9993","BSTAR":"0.00020476000000","DECAY_DATE":null,"LAUNCH_DATE":"2021-02-04","APOAPSIS":"548.596","GP_ID":"219381085","EPOCH":"2022-12-02T17:48:23.593536","OBJECT_NAME":"STARLINK-1960","MEAN_MOTION_DDOT":"0.0000000000000","NORAD_CAT_ID":"47561","TIME_SYSTEM":"UTC","RCS_SIZE":"LARGE","MEAN_ANOMALY":"288.3293","SEMIMAJOR_AXIS":"6925.341","CLASSIFICATION_TYPE":"U","REF_FRAME":"TEME","ELEMENT_SET_NO":"999","ECCENTRICITY":"0.00020080","OBJECT_TYPE":"PAYLOAD","MEAN_MOTION":"15.06402623"},{"EPOCH":"2022-12-02T11:47:27.560544","GP_ID":"219348720","LAUNCH_DATE":"2021-02-04","APOAPSIS":"548.579","DECAY_DATE":null,"OBJECT_NAME":"STARLINK-1961","MEAN_MOTION_DDOT":"0.0000000000000","BSTAR":"0.00002197700000","REF_FRAME":"TEME","CLASSIFICATION_TYPE":"U","MEAN_MOTION":"15.06400380","OBJECT_TYPE":"PAYLOAD","ECCENTRICITY":"0.00019740","ELEMENT_SET_NO":"999","RCS_SIZE":"LARGE","MEAN_ANOMALY":"300.2281","TIME_SYSTEM":"UTC","NORAD_CAT_ID":"47562","SEMIMAJOR_AXIS":"6925.347","PERIAPSIS":"545.845","OBJECT_ID":"2021-009Q","RA_OF_ASC_NODE":"338.0975","ARG_OF_PERICENTER":"59.8903","SITE":"AFETR","INCLINATION":"53.0575","PERIOD":"95.592","EPHEMERIS_TYPE":"0","FILE":"3679245","COUNTRY_CODE":"US","TLE_LINE1":"1 47562U 21009Q   22336.49129121  .00000046  00000-0  21977-4 0  9991","MEAN_ELEMENT_THEORY":"SGP4","TLE_LINE2":"2 47562  53.0575 338.0975 0001974  59.8903 300.2281 15.06400380100959","MEAN_MOTION_DOT":"0.00000046","REV_AT_EPOCH":"10095","CENTER_NAME":"EARTH"},{"TIME_SYSTEM":"UTC","NORAD_CAT_ID":"47563","MEAN_ANOMALY":"302.6660","RCS_SIZE":"LARGE","SEMIMAJOR_AXIS":"6925.372","CLASSIFICATION_TYPE":"U","REF_FRAME":"TEME","ECCENTRICITY":"0.00018300","ELEMENT_SET_NO":"999","OBJECT_TYPE":"PAYLOAD","MEAN_MOTION":"15.06392291","BSTAR":"0.00009581100000","LAUNCH_DATE":"2021-02-04","APOAPSIS":"548.505","DECAY_DATE":null,"EPOCH":"2022-12-02T17:05:56.191488","GP_ID":"219380084","OBJECT_NAME":"STARLINK-1962","MEAN_MOTION_DDOT":"0.0000000000000","CENTER_NAME":"EARTH","COUNTRY_CODE":"US","FILE":"3679625","MEAN_ELEMENT_THEORY":"SGP4","TLE_LINE2":"2 47563  53.0549 337.1150 0001830  57.4506 302.6660 15.06392291100981","REV_AT_EPOCH":"10098","MEAN_MOTION_DOT":"0.00001145","TLE_LINE1":"1 47563U 21009R   22336.71245592  .00001145  00000-0  95811-4 0  9997","INCLINATION":"53.0549","SITE":"AFETR","PERIOD":"95.593","EPHEMERIS_TYPE":"0","RA_OF_ASC_NODE":"337.1150","PERIAPSIS":"545.970","OBJECT_ID":"2021-009R","ARG_OF_PERICENTER":"57.4506"},{"BSTAR":"0.00007787200000","OBJECT_NAME":"STARLINK-1963","MEAN_MOTION_DDOT":"0.0000000000000","EPOCH":"2022-12-02T17:07:15.409056","GP_ID":"219380835","LAUNCH_DATE":"2021-02-04","APOAPSIS":"548.333","DECAY_DATE":null,"SEMIMAJOR_AXIS":"6925.362","MEAN_ANOMALY":"289.8403","RCS_SIZE":"LARGE","TIME_SYSTEM":"UTC","NORAD_CAT_ID":"47564","OBJECT_TYPE":"PAYLOAD","MEAN_MOTION":"15.06395725","ELEMENT_SET_NO":"999","ECCENTRICITY":"0.00015980","REF_FRAME":"TEME","CLASSIFICATION_TYPE":"U","PERIOD":"95.592","EPHEMERIS_TYPE":"0","INCLINATION":"53.0564","SITE":"AFETR","ARG_OF_PERICENTER":"70.2758","OBJECT_ID":"2021-009S","PERIAPSIS":"546.120","RA_OF_ASC_NODE":"327.1083","CENTER_NAME":"EARTH","TLE_LINE1":"1 47564U 21009S   22336.71337279  .00000878  00000-0  77872-4 0  9991","MEAN_ELEMENT_THEORY":"SGP4","MEAN_MOTION_DOT":"0.00000878","TLE_LINE2":"2 47564  53.0564 327.1083 0001598  70.2758 289.8403 15.06395725101129","REV_AT_EPOCH":"10112","FILE":"3679625","COUNTRY_CODE":"US"},{"PERIAPSIS":"546.138","OBJECT_ID":"2021-009T","RA_OF_ASC_NODE":"328.0130","ARG_OF_PERICENTER":"50.3664","INCLINATION":"53.0564","SITE":"AFETR","PERIOD":"95.592","EPHEMERIS_TYPE":"0","FILE":"3679245","COUNTRY_CODE":"US","TLE_LINE1":"1 47565U 21009T   22336.51064537  .00000867  00000-0  77106-4 0  9992","MEAN_ELEMENT_THEORY":"SGP4","REV_AT_EPOCH":"10109","TLE_LINE2":"2 47565  53.0564 328.0130 0001571  50.3664 309.7464 15.06395892101099","MEAN_MOTION_DOT":"0.00000867","CENTER_NAME":"EARTH","EPOCH":"2022-12-02T12:15:19.759968","GP_ID":"219349972","LAUNCH_DATE":"2021-02-04","APOAPSIS":"548.314","DECAY_DATE":null,"OBJECT_NAME":"STARLINK-1964","MEAN_MOTION_DDOT":"0.0000000000000","BSTAR":"0.00007710600000","CLASSIFICATION_TYPE":"U","REF_FRAME":"TEME","OBJECT_TYPE":"PAYLOAD","MEAN_MOTION":"15.06395892","ELEMENT_SET_NO":"999","ECCENTRICITY":"0.00015710","MEAN_ANOMALY":"309.7464","RCS_SIZE":"LARGE","TIME_SYSTEM":"UTC","NORAD_CAT_ID":"47565","SEMIMAJOR_AXIS":"6925.361"},{"MEAN_ELEMENT_THEORY":"SGP4","TLE_LINE2":"2 47566  53.0561 318.6436 0001671  65.9553 294.1610 15.06398085101212","MEAN_MOTION_DOT":"0.00002691","REV_AT_EPOCH":"10121","TLE_LINE1":"1 47566U 21009U   22336.37149885  .00002691  00000-0  19948-3 0  9993","COUNTRY_CODE":"US","FILE":"3679245","CENTER_NAME":"EARTH","ARG_OF_PERICENTER":"65.9553","RA_OF_ASC_NODE":"318.6436","PERIAPSIS":"546.062","OBJECT_ID":"2021-009U","PERIOD":"95.592","EPHEMERIS_TYPE":"0","SITE":"AFETR","INCLINATION":"53.0561","ECCENTRICITY":"0.00016710","ELEMENT_SET_NO":"999","OBJECT_TYPE":"PAYLOAD","MEAN_MOTION":"15.06398085","CLASSIFICATION_TYPE":"U","REF_FRAME":"TEME","SEMIMAJOR_AXIS":"6925.354","TIME_SYSTEM":"UTC","NORAD_CAT_ID":"47566","RCS_SIZE":"LARGE","MEAN_ANOMALY":"294.1610","OBJECT_NAME":"STARLINK-1965","MEAN_MOTION_DDOT":"0.0000000000000","APOAPSIS":"548.377","LAUNCH_DATE":"2021-02-04","DECAY_DATE":null,"EPOCH":"2022-12-02T08:54:57.500640","GP_ID":"219348220","BSTAR":"0.00019948000000"},{"APOAPSIS":"548.307","LAUNCH_DATE":"2021-02-04","DECAY_DATE":null,"EPOCH":"2022-12-02T11:23:34.973376","GP_ID":"219348470","MEAN_MOTION_DDOT":"0.0000000000000","OBJECT_NAME":"STARLINK-1966","BSTAR":"0.00043555000000","CLASSIFICATION_TYPE":"U","REF_FRAME":"TEME","ECCENTRICITY":"0.00016260","ELEMENT_SET_NO":"999","OBJECT_TYPE":"PAYLOAD","MEAN_MOTION":"15.06410546","TIME_SYSTEM":"UTC","NORAD_CAT_ID":"47567","RCS_SIZE":"LARGE","MEAN_ANOMALY":"282.8627","SEMIMAJOR_AXIS":"6925.316","RA_OF_ASC_NODE":"358.1767","OBJECT_ID":"2021-009V","PERIAPSIS":"546.055","ARG_OF_PERICENTER":"77.2544","INCLINATION":"53.0563","SITE":"AFETR","PERIOD":"95.591","EPHEMERIS_TYPE":"0","COUNTRY_CODE":"US","FILE":"3679245","MEAN_ELEMENT_THEORY":"SGP4","REV_AT_EPOCH":"10066","TLE_LINE2":"2 47567  53.0563 358.1767 0001626  77.2544 282.8627 15.06410546100664","MEAN_MOTION_DOT":"0.00006214","TLE_LINE1":"1 47567U 21009V   22336.47471034  .00006214  00000-0  43555-3 0  9995","CENTER_NAME":"EARTH"},{"OBJECT_NAME":"STARLINK-1967","MEAN_MOTION_DDOT":"0.0000000000000","DECAY_DATE":null,"LAUNCH_DATE":"2021-02-04","APOAPSIS":"548.336","GP_ID":"219381336","EPOCH":"2022-12-02T18:22:54.472800","BSTAR":"0.00006469700000","ECCENTRICITY":"0.00015690","ELEMENT_SET_NO":"999","MEAN_MOTION":"15.06388197","OBJECT_TYPE":"PAYLOAD","REF_FRAME":"TEME","CLASSIFICATION_TYPE":"U","SEMIMAJOR_AXIS":"6925.385","NORAD_CAT_ID":"47568","TIME_SYSTEM":"UTC","RCS_SIZE":"LARGE","MEAN_ANOMALY":"299.7028","ARG_OF_PERICENTER":"60.4117","RA_OF_ASC_NODE":"356.8770","PERIAPSIS":"546.163","OBJECT_ID":"2021-009W","EPHEMERIS_TYPE":"0","PERIOD":"95.593","SITE":"AFETR","INCLINATION":"53.0566","TLE_LINE2":"2 47568  53.0566 356.8770 0001569  60.4117 299.7028 15.06388197100717","REV_AT_EPOCH":"10071","MEAN_MOTION_DOT":"0.00000682","MEAN_ELEMENT_THEORY":"SGP4","TLE_LINE1":"1 47568U 21009W   22336.76590825  .00000682  00000-0  64697-4 0  9992","COUNTRY_CODE":"US","FILE":"3679625","CENTER_NAME":"EARTH"},{"BSTAR":"0.00090111000000","APOAPSIS":"301.129","LAUNCH_DATE":"2021-02-04","DECAY_DATE":null,"EPOCH":"2022-12-02T14:39:45.766368","GP_ID":"219381086","MEAN_MOTION_DDOT":"0.0000451900000","OBJECT_NAME":"STARLINK-1968","TIME_SYSTEM":"UTC","NORAD_CAT_ID":"47569","MEAN_ANOMALY":"198.2954","RCS_SIZE":"LARGE","SEMIMAJOR_AXIS":"6675.241","CLASSIFICATION_TYPE":"U","REF_FRAME":"TEME","ECCENTRICITY":"0.00060270","ELEMENT_SET_NO":"999","OBJECT_TYPE":"PAYLOAD","MEAN_MOTION":"15.91850692","INCLINATION":"53.0470","SITE":"AFETR","PERIOD":"90.461","EPHEMERIS_TYPE":"0","RA_OF_ASC_NODE":"194.3557","PERIAPSIS":"293.083","OBJECT_ID":"2021-009X","ARG_OF_PERICENTER":"161.8289","CENTER_NAME":"EARTH","COUNTRY_CODE":"US","FILE":"3679625","MEAN_ELEMENT_THEORY":"SGP4","TLE_LINE2":"2 47569  53.0470 194.3557 0006027 161.8289 198.2954 15.91850692102991","REV_AT_EPOCH":"10299","MEAN_MOTION_DOT":"0.00301061","TLE_LINE1":"1 47569U 21009X   22336.61094637  .00301061  45190-4  90111-3 0  9994"}];
